[{"OBJECT_NAME":"GOES 18","OBJECT_ID":"2022-021A","EPOCH":"2026-03-28T17:33:26.856576","MEAN_MOTION":1.00272342,"ECCENTRICITY":4.38e-5,"INCLINATION":0.0455,"RA_OF_ASC_NODE":18.7374,"ARG_OF_PERICENTER":36.9621,"MEAN_ANOMALY":256.7912,"EPHEMERIS_TYPE":0,"CLASSIFICATION_TYPE":"U","NORAD_CAT_ID":51850,"ELEMENT_SET_NO":999,"REV_AT_EPOCH":578,"BSTAR":0,"MEAN_MOTION_DOT":7.7e-7,"MEAN_MOTION_DDOT":0},{"OBJECT_NAME":"GOES 19","OBJECT_ID":"2024-119A","EPOCH":"2026-03-28T14:25:37.366752","MEAN_MOTION":1.00270005,"ECCENTRICITY":8.18e-5,"INCLINATION":0.0476,"RA_OF_ASC_NODE":15.5541,"ARG_OF_PERICENTER":25.4447,"MEAN_ANOMALY":286.2025,"EPHEMERIS_TYPE":0,"CLASSIFICATION_TYPE":"U","NORAD_CAT_ID":60133,"ELEMENT_SET_NO":999,"REV_AT_EPOCH":615,"BSTAR":0,"MEAN_MOTION_DOT":-2.68e-6,"MEAN_MOTION_DDOT":0}]
